HST                     
1 20580U 90037B   24012.97509660  .00007010  00000+0  35035-3 0  9991
2 20580  28.4700 309.8883 0002586 132.9037 297.9767 15.15514497653297
POLAR                   
1 23802U 96013A   24004.85388721  .00000279  00000+0  00000+0 0  9992
2 23802  79.0068 236.2031 5807700 239.3895  51.1343  1.29846981133248
SWAS                    
1 25560U 98071A   24013.12278278  .00005639  00000+0  47612-3 0  9995
2 25560  69.9004 334.5766 0007143 200.2844 159.8032 14.98643820364250
CXO                     
1 25867U 99040B   24009.20773412  .00000606  00000+0  00000+0 0  9991
2 25867  38.2285 170.7177 9004772 283.7284   0.3392  0.37813899 25115
XMM-NEWTON              
1 25989U 99066A   24013.02586873  .00000168  00000+0  00000+0 0  9995
2 25989  68.3824 295.2098 5303417  79.4165  26.6725  0.50135559 32923
TERRA                   
1 25994U 99068A   24013.13555131  .00000853  00000+0  18904-3 0  9995
2 25994  98.0705  81.0839 0002950 115.6866 300.7852 14.59531310280409
CLUSTER II-FM7 (SAMBA)  
1 26410U 00041A   24013.29066473  .00000865  00000+0  00000+0 0  9992
2 26410 137.7972 355.2401 7071218 209.8929 359.1412  0.44213626 16365
CLUSTER II-FM6 (SALSA)  
1 26411U 00041B   24013.28786174  .00002906  00000+0  00000+0 0  9997
2 26411 145.0195  11.1122 8698940 225.4123 359.2836  0.44223118 16426
CLUSTER II-FM5 (RUMBA)  
1 26463U 00045A   24013.28674280  .00002498  00000+0  00000+0 0  9998
2 26463 147.5295   9.0736 8204305 224.0910 359.2765  0.44219994 28695
CLUSTER II-FM8 (TANGO)  
1 26464U 00045B   24013.29068749  .00000865  00000+0  00000+0 0  9993
2 26464 137.8096 355.2388 7071310 209.9045 359.1341  0.44219648 64037
ODIN                    
1 26702U 01007A   24013.01694418  .00009996  00000+0  48914-3 0  9999
2 26702  97.4927  29.2800 0010205 103.1197 257.1176 15.18349285253788
TIMED                   
1 26998U 01055B   24012.91135341  .00001884  00000+0  19622-3 0  9994
2 26998  74.0695 213.7026 0002195 276.2523  83.8409 14.90601376198537
INTEGRAL                
1 27540U 02048A   24011.34439462 -.00000215  00000+0  00000+0 0  9992
2 27540  87.3678  28.3239 8702283 286.3512 273.7375  0.37574031 23293
CORIOLIS                
1 27640U 03001A   24012.94930050  .00000257  00000+0  14315-3 0  9992
2 27640  98.7148  22.6664 0013203 243.0743 116.9084 14.19377614 88475
SORCE                   
1 27651U 03004A   24012.91512349  .00004509  00000+0  43089-3 0  9995
2 27651  39.9921 242.0659 0020364 213.2862 146.6649 14.93643642138867
MOST                    
1 27843U 03031D   24013.01352263  .00000187  00000+0  10675-3 0  9990
2 27843  98.7076  22.2305 0008962 293.3353  66.6881 14.20885698 64848
SCISAT 1                
1 27858U 03036A   24012.74619205  .00001506  00000+0  20989-3 0  9997
2 27858  73.9327 129.3107 0007215  24.9540 335.1982 14.78723525100281
SWIFT                   
1 28485U 04047A   24012.90905493  .00011803  00000+0  58943-3 0  9994
2 28485  20.5549 216.2562 0009007  65.1544 294.9827 15.14846906 50414
CLOUDSAT                
1 29107U 06016A   24013.08317615  .00001182  00000+0  22857-3 0  9991
2 29107  98.3986 351.7666 0003183 267.8255  92.2583 14.65287210943256
CALIPSO                 
1 29108U 06016B   24013.13001998  .00002424  00000+0  46169-3 0  9994
2 29108  98.4020 351.3735 0001389  90.3663 269.7699 14.65007064943119
HINODE (SOLAR-B)        
1 29479U 06041A   24012.65556240  .00001225  00000+0  23210-3 0  9994
2 29479  98.0976  30.1637 0017344 212.1991 147.8155 14.65965189924848
SJ-6C                   
1 29505U 06046A   24013.14714066  .00007063  00000+0  55558-3 0  9992
2 29505  97.7393  40.7211 0006716 319.9185  40.1542 15.01136655938731
SJ-6D                   
1 29506U 06046B   24013.15840288  .00003705  00000+0  33205-3 0  9994
2 29506  97.7547  39.5182 0003776  96.5494 263.6157 14.96394077937998
AGILE                   
1 31135U 07013A   23350.08251854  .00107066  00000+0  57419-3 0  9998
2 31135   2.4639 161.3495 0003314 233.1200 126.8551 15.78206954561928
FGRST (GLAST)           
1 33053U 08029A   24012.92057844  .00003459  00000+0  16155-3 0  9992
2 33053  25.5806 201.3576 0011065  14.6733 345.4123 15.15526094860838
WISE                    
1 36119U 09071A   24012.63368485  .00029749  00000+0  50979-3 0  9992
2 36119  97.1707  48.6332 0002246  51.8209 308.3245 15.51167399783884
SDO                     
1 36395U 10005A   24011.27304223 -.00000085  00000+0  00000+0 0  9995
2 36395  32.7995 100.0728 0002751 211.4580 154.7748  1.00268623 51164
CRYOSAT 2               
1 36508U 10013A   24012.90807057  .00000342  00000+0  84110-4 0  9998
2 36508  92.0293  63.1573 0005626  93.4111 266.7740 14.51898799729485
X-SAT                   
1 37389U 11015C   24013.14125697  .00000146  00000+0  80062-4 0  9993
2 37389  98.2952  25.7152 0015228  67.5171 292.7619 14.24612761662019
GCOM-W1 (SHIZUKU)       
1 38337U 12025A   24012.85456043  .00001230  00000+0  28361-3 0  9996
2 38337  98.2243 315.1509 0001511  84.7275 342.0424 14.57026774619951
NUSTAR                  
1 38358U 12031A   24006.08911830  .00004811  00000+0  36986-3 0  9994
2 38358   6.0245 180.9334 0011287 278.3753  81.5096 14.94064723629734
NEOSSAT                 
1 39089U 13009D   24013.14633724  .00000404  00000+0  15680-3 0  9992
2 39089  98.4019 204.6063 0011532  12.8139 347.3338 14.35027962569638
BRITE-AUSTRIA           
1 39091U 13009F   24012.93580929  .00000415  00000+0  15835-3 0  9993
2 39091  98.3834 204.7777 0010580  12.3859 347.7585 14.35651527569845
IRIS                    
1 39197U 13033A   24013.09417769  .00002758  00000+0  35907-3 0  9990
2 39197  97.9632 204.6002 0025937 330.3440  29.6301 14.81220738568998
HISAKI (SPRINT-A)       
1 39253U 13049A   24013.23079972  .00000162  00000+0  13449-3 0  9990
2 39253  29.7212  43.6743 0137093  35.2099 325.7444 13.55366144512178
CASSIOPE                
1 39265U 13055A   24013.14785882  .00034724  00000+0  77863-3 0  9995
2 39265  80.9582   8.4428 0533191  29.2761 333.7218 14.61176629535513
STSAT-3                 
1 39422U 13066G   24013.12328688  .00003501  00000+0  33597-3 0  9992
2 39422  97.5053 359.3340 0021833 157.9438 202.2727 14.93525109551510
SWARM B                 
1 39451U 13067A   24012.89511484  .00003828  00000+0  18268-3 0  9996
2 39451  87.7470 249.1643 0002636  82.8805 277.2738 15.18779190548263
SWARM A                 
1 39452U 13067B   24012.93741693  .00007894  00000+0  27271-3 0  9990
2 39452  87.3440  19.1615 0002755  77.4872 282.6685 15.29770966569850
SWARM C                 
1 39453U 13067C   24012.93732974  .00007972  00000+0  27538-3 0  9996
2 39453  87.3439  17.7581 0002772  77.0975 283.0584 15.29775371569818
BRITE-CA1 (TORONTO)     
1 40020U 14033L   24012.97784537  .00002608  00000+0  43314-3 0  9999
2 40020  97.8518 155.9219 0083240 230.2881 129.0967 14.68712079512040
OCO 2                   
1 40059U 14035A   24012.90644659  .00001078  00000+0  24929-3 0  9997
2 40059  98.2246 315.9405 0000789  96.5416 263.5872 14.57116616506982
BRITE-PL2 (HEWELIUSZ)   
1 40119U 14049B   24012.83544864  .00003579  00000+0  39741-3 0  9994
2 40119  97.8821 113.4125 0016822 154.9554 205.2482 14.87747518509325
RESURS P2               
1 40360U 14087A   24013.17592791  .00021873  00000+0  38123-3 0  9994
2 40360  97.1661  99.7487 0007548 147.3374 212.8347 15.50717944506823
MMS 1                   
1 40482U 15011A   24013.25002315 -.00001600  00000+0  00000+0 0  9990
2 40482  37.7649  27.3976 9173319 132.3200  33.9076  0.28389090 14938
MMS 2                   
1 40483U 15011B   24013.25002315 -.00001600  00000+0  00000+0 0  9991
2 40483  37.7720  27.4099 9172590 132.3098  33.9275  0.28389234 14910
MMS 3                   
1 40484U 15011C   24013.25002315 -.00001600  00000+0  00000+0 0  9992
2 40484  37.7629  27.4060 9171634 132.3115  33.9118  0.28389152 14910
MMS 4                   
1 40485U 15011D   24013.25002315 -.00001600  00000+0  00000+0 0  9993
2 40485  37.7670  27.4048 9172506 132.3036  33.9459  0.28389142 14911
ASTROSAT                
1 40930U 15052A   24006.16340880  .00001943  00000+0  17423-3 0  9997
2 40930   5.9997  85.2473 0008613 282.4744  77.4420 14.78268977447249
DAMPE                   
1 41173U 15078A   24013.14639901  .00002276  00000+0  90183-4 0  9991
2 41173  97.4206   7.4988 0012459 341.2871  18.7908 15.26391283449177
PISAT                   
1 41784U 16059B   24013.08326172  .00001528  00000+0  28967-3 0  9994
2 41784  97.8495  42.1708 0031668 147.2265 213.0912 14.65317780389797
HXMT (HUIYAN)           
1 42758U 17034A   24013.17602841  .00009395  00000+0  50462-3 0  9995
2 42758  43.0155  58.8927 0003419 276.8527  83.1932 15.15070752363189
FLYING LAPTOP           
1 42831U 17042G   24012.92455910  .00003617  00000+0  34299-3 0  9992
2 42831  97.3795 203.0597 0011923 239.2618 120.7429 14.94094118353796
ZHANGZHENG-1 (CSES)     
1 43194U 18015C   24013.14874413  .00017671  00000+0  80120-3 0  9993
2 43194  97.5874 155.5571 0017464 349.6760  10.4113 15.20762487329971
SALSAT                  
1 46495U 20068K   24012.86600683  .00007581  00000+0  46394-3 0  9999
2 46495  97.7983 328.7746 0016251 122.7429 237.5369 15.10405246180699
IXPE                    
1 49954U 21121A   24006.41326890  .00004809  00000+0  34734-3 0  9997
2 49954   0.2276 159.2181 0010076  26.1569 174.6137 14.96025383113476
